{"type": "FeatureCollection", "features": [ {"type": "Feature", "properties": {"norad_id": 41836, "name": "HIMAWARI-9", "group": "weather", "lat": -0.034161307010989996, "lon": -40.93093067920575, "alt_km": 35780.10363309082, "timestamp": "2025-12-22T05:49:03.124726+00:00", "meta": {"OBJECT_NAME": "HIMAWARI-9", "OBJECT_ID": "2016-064A", "EPOCH": "2025-12-21T17:17:31.727040", "MEAN_MOTION": 1.00272512, "ECCENTRICITY": 0.0001422, "INCLINATION": 0.0165, "RA_OF_ASC_NODE": 18.1213, "ARG_OF_PERICENTER": 313.7612, "MEAN_ANOMALY": 158.8012, "EPHEMERIS_TYPE": 0, "CLASSIFICATION_TYPE": "U", "NORAD_CAT_ID": 41836, "ELEMENT_SET_NO": 999, "REV_AT_EPOCH": 3343, "BSTAR": 0, "MEAN_MOTION_DOT": 0, "MEAN_MOTION_DDOT": 0}, "tle": {"line1": "1 41836U 16064A   25355.72050610  .00000000  00000+0  00000+0 0  9998", "line2": "2 41836   0.0165  18.1213 0001422 313.7612 158.8012  1.00272512 33432"}}, "geometry": {"type": "Point", "coordinates": [-40.93093067920575, -0.034161307010989996]}}, {"type": "Feature", "properties": {"norad_id": 41866, "name": "GOES 16", "group": "weather", "lat": -0.009443781297615148, "lon": 73.6367834673817, "alt_km": 35799.48791183257, "timestamp": "2025-12-22T05:49:03.124739+00:00", "meta": {"OBJECT_NAME": "GOES 16", "OBJECT_ID": "2016-071A", "EPOCH": "2025-12-21T16:07:23.443968", "MEAN_MOTION": 1.0026909, "ECCENTRICITY": 0.0003023, "INCLINATION": 0.0703, "RA_OF_ASC_NODE": 104.1031, "ARG_OF_PERICENTER": 158.6083, "MEAN_ANOMALY": 324.955, "EPHEMERIS_TYPE": 0, "CLASSIFICATION_TYPE": "U", "NORAD_CAT_ID": 41866, "ELEMENT_SET_NO": 999, "REV_AT_EPOCH": 3332, "BSTAR": 0, "MEAN_MOTION_DOT": -6.8e-07, "MEAN_MOTION_DDOT": 0}, "tle": {"line1": "1 41866U 16071A   25355.67179912 -.00000068  00000+0  00000+0 0  9995", "line2": "2 41866   0.0703 104.1031 0003023 158.6083 324.9550  1.00269090 33322"}}, "geometry": {"type": "Point", "coordinates": [73.6367834673817, -0.009443781297615148]}}, {"type": "Feature", "properties": {"norad_id": 41882, "name": "FENGYUN 4A", "group": "weather", "lat": -1.2212388803011867, "lon": -57.96487808632565, "alt_km": 35783.65942395733, "timestamp": "2025-12-22T05:49:03.124751+00:00", "meta": {"OBJECT_NAME": "FENGYUN 4A", "OBJECT_ID": "2016-077A", "EPOCH": "2025-12-19T13:51:06.687072", "MEAN_MOTION": 1.00266581, "ECCENTRICITY": 0.0004506, "INCLINATION": 1.866, "RA_OF_ASC_NODE": 82.3247, "ARG_OF_PERICENTER": 142.8816, "MEAN_ANOMALY": 194.7423, "EPHEMERIS_TYPE": 0, "CLASSIFICATION_TYPE": "U", "NORAD_CAT_ID": 41882, "ELEMENT_SET_NO": 999, "REV_AT_EPOCH": 3312, "BSTAR": 0, "MEAN_MOTION_DOT": -3.34e-06, "MEAN_MOTION_DDOT": 0}, "tle": {"line1": "1 41882U 16077A   25353.57716073 -.00000334  00000+0  00000+0 0  9997", "line2": "2 41882   1.8660  82.3247 0004506 142.8816 194.7423  1.00266581 33125"}}, "geometry": {"type": "Point", "coordinates": [-57.96487808632565, -1.2212388803011867]}}, {"type": "Feature", "properties": {"norad_id": 41884, "name": "CYGFM05", "group": "weather", "lat": 29.25965633541753, "lon": 111.7338925423558, "alt_km": 423.18270553239836, "timestamp": "2025-12-22T05:49:03.124764+00:00", "meta": {"OBJECT_NAME": "CYGFM05", "OBJECT_ID": "2016-078A", "EPOCH": "2025-12-21T09:10:24.136320", "MEAN_MOTION": 15.47935175, "ECCENTRICITY": 0.00108426, "INCLINATION": 34.9606, "RA_OF_ASC_NODE": 350.6634, "ARG_OF_PERICENTER": 258.3827, "MEAN_ANOMALY": 101.5678, "EPHEMERIS_TYPE": 0, "CLASSIFICATION_TYPE": "U", "NORAD_CAT_ID": 41884, "ELEMENT_SET_NO": 999, "REV_AT_EPOCH": 50110, "BSTAR": 0.00031525581, "MEAN_MOTION_DOT": 0.00016973, "MEAN_MOTION_DDOT": 0}, "tle": {"line1": "1 41884U 16078A   25355.38222380  .00016973  00000+0  31526-3 0  9990", "line2": "2 41884  34.9606 350.6634 0010842 258.3827 101.5678 15.47935175501104"}}, "geometry": {"type": "Point", "coordinates": [111.7338925423558, 29.25965633541753]}}, {"type": "Feature", "properties": {"norad_id": 41885, "name": "CYGFM04", "group": "weather", "lat": 34.74957929852803, "lon": 55.920553947218515, "alt_km": 414.4359603287712, "timestamp": "2025-12-22T05:49:03.124775+00:00", "meta": {"OBJECT_NAME": "CYGFM04", "OBJECT_ID": "2016-078B", "EPOCH": "2025-12-21T07:46:40.834272", "MEAN_MOTION": 15.50699821, "ECCENTRICITY": 0.00096573, "INCLINATION": 34.9356, "RA_OF_ASC_NODE": 325.5706, "ARG_OF_PERICENTER": 282.921, "MEAN_ANOMALY": 77.0434, "EPHEMERIS_TYPE": 0, "CLASSIFICATION_TYPE": "U", "NORAD_CAT_ID": 41885, "ELEMENT_SET_NO": 999, "REV_AT_EPOCH": 50127, "BSTAR": 0.00032492185, "MEAN_MOTION_DOT": 0.00019293, "MEAN_MOTION_DDOT": 0}, "tle": {"line1": "1 41885U 16078B   25355.32408373  .00019293  00000+0  32492-3 0  9994", "line2": "2 41885  34.9356 325.5706 0009657 282.9210  77.0434 15.50699821501273"}}, "geometry": {"type": "Point", "coordinates": [55.920553947218515, 34.74957929852803]}}, {"type": "Feature", "properties": {"norad_id": 41886, "name": "CYGFM02", "group": "weather", "lat": 13.43902073198343, "lon": 117.7324506019171, "alt_km": 412.9947322428661, "timestamp": "2025-12-22T05:49:03.124786+00:00", "meta": {"OBJECT_NAME": "CYGFM02", "OBJECT_ID": "2016-078C", "EPOCH": "2025-12-21T07:32:12.876288", "MEAN_MOTION": 15.52104529, "ECCENTRICITY": 0.00113308, "INCLINATION": 34.9445, "RA_OF_ASC_NODE": 323.8504, "ARG_OF_PERICENTER": 283.548, "MEAN_ANOMALY": 76.3981, "EPHEMERIS_TYPE": 0, "CLASSIFICATION_TYPE": "U", "NORAD_CAT_ID": 41886, "ELEMENT_SET_NO": 999, "REV_AT_EPOCH": 50140, "BSTAR": 0.00033641994, "MEAN_MOTION_DOT": 0.00021032, "MEAN_MOTION_DDOT": 0}, "tle": {"line1": "1 41886U 16078C   25355.31403792  .00021032  00000+0  33642-3 0  9996", "line2": "2 41886  34.9445 323.8504 0011330 283.5480  76.3981 15.52104529501409"}}, "geometry": {"type": "Point", "coordinates": [117.7324506019171, 13.43902073198343]}}, {"type": "Feature", "properties": {"norad_id": 41887, "name": "CYGFM01", "group": "weather", "lat": -3.287915444383114, "lon": 172.04388225915042, "alt_km": 418.20176523192004, "timestamp": "2025-12-22T05:49:03.124796+00:00", "meta": {"OBJECT_NAME": "CYGFM01", "OBJECT_ID": "2016-078D", "EPOCH": "2025-12-21T16:38:27.575808", "MEAN_MOTION": 15.48534747, "ECCENTRICITY": 0.0010516, "INCLINATION": 34.9438, "RA_OF_ASC_NODE": 350.9164, "ARG_OF_PERICENTER": 253.8034, "MEAN_ANOMALY": 106.1531, "EPHEMERIS_TYPE": 0, "CLASSIFICATION_TYPE": "U", "NORAD_CAT_ID": 41887, "ELEMENT_SET_NO": 999, "REV_AT_EPOCH": 50109, "BSTAR": 0.00032135, "MEAN_MOTION_DOT": 0.00017671, "MEAN_MOTION_DDOT": 0}, "tle": {"line1": "1 41887U 16078D   25355.69337472  .00017671  00000+0  32135-3 0  9999", "line2": "2 41887  34.9438 350.9164 0010516 253.8034 106.1531 15.48534747501097"}}, "geometry": {"type": "Point", "coordinates": [172.04388225915042, -3.287915444383114]}}, {"type": "Feature", "properties": {"norad_id": 41888, "name": "CYGFM08", "group": "weather", "lat": -34.71068267401294, "lon": -112.52533908216441, "alt_km": 411.39723728901663, "timestamp": "2025-12-22T05:49:03.124808+00:00", "meta": {"OBJECT_NAME": "CYGFM08", "OBJECT_ID": "2016-078E", "EPOCH": "2025-12-21T06:59:16.414080", "MEAN_MOTION": 15.49748097, "ECCENTRICITY": 0.0011942, "INCLINATION": 34.9467, "RA_OF_ASC_NODE": 336.439, "ARG_OF_PERICENTER": 273.0676, "MEAN_ANOMALY": 86.868, "EPHEMERIS_TYPE": 0, "CLASSIFICATION_TYPE": "U", "NORAD_CAT_ID": 41888, "ELEMENT_SET_NO": 999, "REV_AT_EPOCH": 50126, "BSTAR": 0.00032362, "MEAN_MOTION_DOT": 0.00018591, "MEAN_MOTION_DDOT": 0}, "tle": {"line1": "1 41888U 16078E   25355.29116220  .00018591  00000+0  32362-3 0  9996", "line2": "2 41888  34.9467 336.4390 0011942 273.0676  86.8680 15.49748097501264"}}, "geometry": {"type": "Point", "coordinates": [-112.52533908216441, -34.71068267401294]}}, {"type": "Feature", "properties": {"norad_id": 41890, "name": "CYGFM07", "group": "weather", "lat": -33.78069603670463, "lon": -114.17922406647989, "alt_km": 411.0943252813222, "timestamp": "2025-12-22T05:49:03.124819+00:00", "meta": {"OBJECT_NAME": "CYGFM07", "OBJECT_ID": "2016-078G", "EPOCH": "2025-12-21T14:41:24.583776", "MEAN_MOTION": 15.50351743, "ECCENTRICITY": 0.0009938, "INCLINATION": 34.9486, "RA_OF_ASC_NODE": 323.2662, "ARG_OF_PERICENTER": 290.6458, "MEAN_ANOMALY": 69.3199, "EPHEMERIS_TYPE": 0, "CLASSIFICATION_TYPE": "U", "NORAD_CAT_ID": 41890, "ELEMENT_SET_NO": 999, "REV_AT_EPOCH": 50133, "BSTAR": 0.0003294, "MEAN_MOTION_DOT": 0.00019319, "MEAN_MOTION_DDOT": 0}, "tle": {"line1": "1 41890U 16078G   25355.61209009  .00019319  00000+0  32940-3 0  9994", "line2": "2 41890  34.9486 323.2662 0009938 290.6458  69.3199 15.50351743501338"}}, "geometry": {"type": "Point", "coordinates": [-114.17922406647989, -33.78069603670463]}}, {"type": "Feature", "properties": {"norad_id": 41891, "name": "CYGFM03", "group": "weather", "lat": 31.235523843761136, "lon": 80.76440088252447, "alt_km": 416.51800235655537, "timestamp": "2025-12-22T05:49:03.124830+00:00", "meta": {"OBJECT_NAME": "CYGFM03", "OBJECT_ID": "2016-078H", "EPOCH": "2025-12-21T07:41:09.975840", "MEAN_MOTION": 15.50235912, "ECCENTRICITY": 0.00096618, "INCLINATION": 34.9438, "RA_OF_ASC_NODE": 327.1045, "ARG_OF_PERICENTER": 275.8408, "MEAN_ANOMALY": 84.1213, "EPHEMERIS_TYPE": 0, "CLASSIFICATION_TYPE": "U", "NORAD_CAT_ID": 41891, "ELEMENT_SET_NO": 999, "REV_AT_EPOCH": 50126, "BSTAR": 0.00032821183, "MEAN_MOTION_DOT": 0.00019168, "MEAN_MOTION_DDOT": 0}, "tle": {"line1": "1 41891U 16078H   25355.32025435  .00019168  00000+0  32821-3 0  9992", "line2": "2 41891  34.9438 327.1045 0009661 275.8408  84.1213 15.50235912501260"}}, "geometry": {"type": "Point", "coordinates": [80.76440088252447, 31.235523843761136]}}]}